CSS (TIANHE)            
1 48274U 21035A   26188.90756394  .00006844  00000+0  92847-4 0  9999
2 48274  41.4677 196.0018 0002951 276.1946  83.8555 15.58032789296406
