{"fetched_at":"2026-07-08T17:59:34.083Z","source":"https://celestrak.org/NORAD/elements/gp.php?GROUP=stations&FORMAT=JSON","constellation":"tiangong","records":[{"OBJECT_NAME":"CSS (TIANHE)","OBJECT_ID":"2021-035A","EPOCH":"2026-07-07T21:46:53.524416","CLASSIFICATION_TYPE":"U","MEAN_MOTION":15.58032789,"ECCENTRICITY":0.0002951,"INCLINATION":41.4677,"RA_OF_ASC_NODE":196.0018,"ARG_OF_PERICENTER":276.1946,"MEAN_ANOMALY":83.8555,"EPHEMERIS_TYPE":0,"NORAD_CAT_ID":48274,"ELEMENT_SET_NO":999,"REV_AT_EPOCH":29640,"BSTAR":0.000092847,"MEAN_MOTION_DOT":0.00006844,"MEAN_MOTION_DDOT":0}]}
